#cP2017 11 22  0  0  0.00000000      96 ORBIT IGS14 HLM  IGS
## 1976 259200.00000000   900.00000000 58079 0.0000000000000
+   32   G01G02G03G04G05G06G07G08G09G10G11G12G13G14G15G16G17
+        G18G19G20G21G22G23G24G25G26G27G28G29G30G31G32  0  0
+          0  0  0  0  0  0  0  0  0  0  0  0  0  0  0  0  0
+          0  0  0  0  0  0  0  0  0  0  0  0  0  0  0  0  0
+          0  0  0  0  0  0  0  0  0  0  0  0  0  0  0  0  0
++         2  2  2  0  2  2  2  2  2  2  2  2  2  2  2  2  2
++         2  2  2  2  2  2  2  2  2  2  2  2  2  2  2  0  0
++         0  0  0  0  0  0  0  0  0  0  0  0  0  0  0  0  0
++         0  0  0  0  0  0  0  0  0  0  0  0  0  0  0  0  0
++         0  0  0  0  0  0  0  0  0  0  0  0  0  0  0  0  0
%c G  cc GPS ccc cccc cccc cccc cccc ccccc ccccc ccccc ccccc
%c cc cc ccc ccc cccc cccc cccc cccc ccccc ccccc ccccc ccccc
%f  1.2500000  1.025000000  0.00000000000  0.000000000000000
%f  0.0000000  0.000000000  0.00000000000  0.000000000000000
%i    0    0    0    0      0      0      0      0         0
%i    0    0    0    0      0      0      0      0         0
/* RAPID ORBIT COMBINATION FROM WEIGHTED AVERAGE OF:        
/* cod emr esa gfz jpl ngs sio usn whu                      
/* REFERENCED TO IGS TIME (IGST) AND TO WEIGHTED MEAN POLE: 
/* PCV:IGS14_1973 OL/AL:FES2004  NONE     Y  ORB:CMB CLK:CMB
*  2017 11 22 10 30  0.00000000
PG01  19330.929744   8565.228022  16108.570476    -11.962964  5  4  6  89       
PG02 -13830.532132 -22583.635545   4095.597599    274.471594 10  6  7  45       
PG03  16938.995253  -2713.885298  20243.729661    -38.392239  6  3  5  73       
PG04   7465.804758  14033.329748 -21520.365856 999999.999999
PG05  -6948.995541 -17518.501635 -18734.692103    -21.970123  6  4  4 107       
PG06  -4168.092280 -22357.865854  13734.238540    410.806485  7  2  6  88       
PG07  13459.229957  -7038.645634 -21603.567272    276.129225  7  8  8 119       
PG08  22609.642968   6409.784362 -12430.956619    -81.497681  7  6  7 112       
PG09  23613.435528  -8512.886474  -8731.159184    474.592059  5  5  3 100       
PG10 -10400.890497  24327.928043   1197.089533    115.712745  7  5  8  80       
PG11  23990.317600   7992.697634   7356.172361   -727.517544  7  4  5 111       
PG12 -15289.231504  -1532.375523  21468.396969    363.720378  9  6  6  98       
PG13 -16316.279159 -12271.123019 -17095.811228    -94.178510  6  7  5 104       
PG14   -491.100800  15324.641383  21964.031695    -89.088587  6  5  4  48       
PG15 -24208.253456  -4189.822156 -10764.808539   -357.246148  7  7  7 109       
PG16   5519.970719  16734.334869 -19863.795147     36.182573  8  6  6  89       
PG17  10764.095287 -13915.438962  20227.621755   -142.902627  4  3  5  83       
PG18 -15087.078462  19669.059105  -8698.244851    632.933309  6  6  8 113       
PG19   2417.752931 -14610.998265  21780.620112   -474.208481  5  5  6 111       
PG20 -16399.589440   -884.106908 -21023.429671    493.487457  8  7  8 102       
PG21 -11277.906622  10320.632272 -20930.582208   -459.776107  8  3  7 114       
PG22  15075.123791   5729.389607  21340.988460   -197.519254  7  5  6  83       
PG23  26708.035215  -1017.914322   2144.998941   -218.763747  9  3  6 105       
PG24 -20304.154141 -10535.484589  13627.483281    -42.522201 10  7  9 120       
PG25 -17453.235981  12050.581488  15691.026685   -493.677752  6  6  6  85       
PG26  -1636.788768  23719.651926 -11716.444761   -353.041915  6  4  7 118       
PG27  12234.902382  12538.778490 -20090.798564    349.945292  6  6  5 111       
PG28  13763.614075 -22672.425869   -920.519948    664.680664  4  2  5 112       
PG29 -25899.511646   3707.355688  -4558.209851    534.998291  7  5  5  73       
PG30   6257.217750 -16741.630293 -19593.588825    126.206557  6  4  5 127       
PG31   4817.165927  22892.437624  12232.051243    160.452257  8  3  5  83       
PG32  -8260.092112  15074.943569  20253.126393   -525.250985  5  7  7  73       
*  2017 11 22 10 45  0.00000000
PG01  20237.753819  10052.726667  14043.183136    -11.965112  6  5  6 103       
PG02 -13277.795063 -22314.009355   6818.796208    274.462572 10  5  7  78       
PG03  16075.158728   -503.767807  21108.428970    -38.387134  6  3  6  76       
PG04   5083.279656  14555.181408 -21820.668565 999999.999999
PG05  -6017.501241 -19349.061497 -17164.087663    -21.969377  4  3  3 112       
PG06  -3017.361543 -21111.150013  15849.202226    410.807755  7  2  6 104       
PG07  14899.126064  -5004.416714 -21264.979593    276.124629  7  8  8 117       
PG08  21091.464288   6786.030638 -14676.169373    -81.498920  7  7  7 108       
PG09  24482.932220  -8364.496012  -6062.453473    474.596226  6  5  4  93       
PG10 -10636.558617  24195.464373  -1665.227208    115.719412  7  5  8  94       
PG11  24447.061431   8733.871919   4732.156104   -727.519033  7  4  5 117       
PG12 -14191.742733  -3796.076350  21949.155212    363.718639  9  5  6 110       
PG13 -14287.731589 -12402.961339 -18749.243387    -94.179029  6  7  4 119       
PG14  -2929.860236  15396.920848  21704.329840    -89.089366  6  5  4  72       
PG15 -22953.132121  -4699.629003 -13062.477452   -357.246426  7  7  7  93       
PG16   4413.695300  18604.551946 -18377.287865     36.182320  8  6  5  83       
PG17  12927.440424 -13972.477028  18834.967155   -142.900021  5  3  5  92       
PG18 -14979.479810  18403.256868 -11159.250980    632.933691  6  6  8  84       
PG19   4938.875596 -14641.191264  21354.769917   -474.206530  5  5  6  90       
PG20 -15718.387414  -3189.563116 -21323.525381    493.488547  8  7  8  99       
PG21 -12900.942698   8330.379716 -20887.111528   -459.772581  7  3  7 103       
PG22  14226.419918   7972.899611  21198.742700   -197.530957  7  5  6 101       
PG23  26373.881378   -708.335221   4904.850277   -218.763847  9  2  6  91       
PG24 -21025.567879 -11799.381396  11345.073498    -42.522964  9  6  8 101       
PG25 -16825.319832  10214.153928  17569.567144   -493.683368  6  6  6 101       
PG26  -2316.616475  24740.387381  -9217.143647   -353.029259  6  4  8 113       
PG27   9924.550504  12885.834131 -21102.396284    349.948355  6  5  5  86       
PG28  13763.917559 -22286.224321  -3810.493596    664.683455  4  3  5 115       
PG29 -26265.401183   3537.666261  -1687.608261    534.993566  8  4  6 102       
PG30   7626.955827 -14878.972301 -20598.268169    126.204138  6  5  4 126       
PG31   3760.589289  21758.191248  14511.189483    160.450036  8  3  5  79       
PG32 -10503.644102  15242.036259  19046.156458   -525.253484  5  7  7  73       
*  2017 11 22 11  0  0.00000000
PG01  21064.252267  11297.234297  11737.318640    -11.967230  6  5  6 113       
PG02 -12512.646130 -21854.609461   9428.373992    274.453740 10  5  6  97       
PG03  15300.841225   1820.551853  21608.982207    -38.381983  6  3  6  94       
PG04   2713.676494  15205.615554 -21752.093216 999999.999999
PG05  -5239.729026 -21041.642011 -15297.972123    -21.967965  3  3  2 106       
PG06  -1656.743255 -19756.980663  17691.730418    410.808984  7  2  6  93       
PG07  16402.051255  -3097.728219 -20555.609481    276.119951  8  8  8 120       
PG08  19359.011896   7288.393829 -16669.260603    -81.500379  6  7  6 124       
PG09  25056.834289  -8203.024094  -3289.560151    474.600346  6  6  4 100       
PG10 -10769.696093  23770.707112  -4498.629406    115.726118  7  4  8  98       
PG11  24666.298311   9314.769258   2025.041354   -727.520796  7  3  5 116       
PG12 -13209.924710  -6146.280456  22045.866635    363.717233  9  5  6 102       
PG13 -12101.706772 -12653.297293 -20082.802435    -94.179383  6  6  4 121       
PG14  -5314.252812  15593.405237  21079.931380    -89.090271  6  5  4  61       
PG15 -21487.737064  -5329.844312 -15141.905121   -357.246268  6  7  7 105       
PG16   3488.755419  20366.306333 -16573.142497     36.181966  8  6  5  95       
PG17  14915.100398 -14127.555932  17126.068030   -142.898263  5  3  5  87       
PG18 -14851.945643  16871.693135 -13420.658200    632.933875  6  6  8  98       
PG19   7381.631507 -14802.567271  20553.007481   -474.204340  4  5  6  90       
PG20 -15143.509823  -5537.097655 -21261.702347    493.489186  8  7  8 108       
PG21 -14595.601267   6439.707151 -20457.252123   -459.769451  7  4  7 103       
PG22  13494.034582  10220.098819  20699.257848   -197.542328  7  5  5  92       
PG23  25757.886655   -327.505978   7582.860948   -218.764016  8  2  6 100       
PG24 -21629.133855 -12825.609542   8869.273515    -42.521823  7  5  7  93       
PG25 -16229.651665   8161.718503  19139.683243   -493.688943  7  6  5 101       
PG26  -2848.028161  25518.081178  -6558.184577   -353.016567  7  3  8 109       
PG27   7542.595980  13376.782701 -21754.252999    349.951361  7  6  5 106       
PG28  13654.206317 -21600.738281  -6634.142877    664.686478  5  4  5 116       
PG29 -26314.975463   3349.509630   1212.053354    534.988981  8  3  6  83       
PG30   9142.742776 -13012.753654 -21247.308011    126.201721  6  5  4 127       
PG31   2496.412210  20489.277083  16536.694166    160.447696  9  3  5  68       
PG32 -12583.708886  15496.238576  17511.418379   -525.255989  5  7  7  72       
EOF
